[Satellite]
VERSION=1.1
NAME=RANGE-A
NICKNAME=RANGE-A
TLE1=1 43773U 18099R   25178.56899162  .00002843  00000-0  18233-3 0  9997
TLE2=2 43773  97.4467 226.4497 0012734 126.2076 234.0333 15.09221428358938
STATUS=0
